{"type": "FeatureCollection", "features": [ {"type": "Feature", "properties": {"norad_id": 37326, "name": "COSMOS 2251 DEB", "group": "cosmos-2251-debris", "lat": 72.36227244609294, "lon": 57.97288668385148, "alt_km": 652.6670193117852, "timestamp": "2025-12-02T19:35:50.952243+00:00", "meta": {"OBJECT_NAME": "COSMOS 2251 DEB", "OBJECT_ID": "1993-036BKS", "EPOCH": "2025-11-27T19:17:38.237856", "MEAN_MOTION": 14.61468685, "ECCENTRICITY": 0.00552422, "INCLINATION": 74.0262, "RA_OF_ASC_NODE": 3.2841, "ARG_OF_PERICENTER": 136.8831, "MEAN_ANOMALY": 223.6683, "EPHEMERIS_TYPE": 0, "CLASSIFICATION_TYPE": "U", "NORAD_CAT_ID": 37326, "ELEMENT_SET_NO": 999, "REV_AT_EPOCH": 85265, "BSTAR": 0.00046910947, "MEAN_MOTION_DOT": 2.345e-05, "MEAN_MOTION_DDOT": 0}, "tle": {"line1": "1 37326U 93036BKS 25331.80391479  .00002345  00000+0  46911-3 0  9994", "line2": "2 37326  74.0262   3.2841 0055242 136.8831 223.6683 14.61468685852655"}}, "geometry": {"type": "Point", "coordinates": [57.97288668385148, 72.36227244609294]}}, {"type": "Feature", "properties": {"norad_id": 37330, "name": "COSMOS 2251 DEB", "group": "cosmos-2251-debris", "lat": 27.167435664804586, "lon": 125.57326771263021, "alt_km": 653.8729987452298, "timestamp": "2025-12-02T19:35:50.952253+00:00", "meta": {"OBJECT_NAME": "COSMOS 2251 DEB", "OBJECT_ID": "1993-036BKW", "EPOCH": "2025-12-01T16:35:02.444064", "MEAN_MOTION": 14.59484724, "ECCENTRICITY": 0.00575212, "INCLINATION": 74.017, "RA_OF_ASC_NODE": 316.1795, "ARG_OF_PERICENTER": 167.7697, "MEAN_ANOMALY": 192.4881, "EPHEMERIS_TYPE": 0, "CLASSIFICATION_TYPE": "U", "NORAD_CAT_ID": 37330, "ELEMENT_SET_NO": 999, "REV_AT_EPOCH": 86207, "BSTAR": 0.00032461737, "MEAN_MOTION_DOT": 1.545e-05, "MEAN_MOTION_DDOT": 0}, "tle": {"line1": "1 37330U 93036BKW 25335.69100051  .00001545  00000+0  32462-3 0  9991", "line2": "2 37330  74.0170 316.1795 0057521 167.7697 192.4881 14.59484724862076"}}, "geometry": {"type": "Point", "coordinates": [125.57326771263021, 27.167435664804586]}}, {"type": "Feature", "properties": {"norad_id": 37331, "name": "COSMOS 2251 DEB", "group": "cosmos-2251-debris", "lat": 63.811238194608926, "lon": 121.504055486338, "alt_km": 735.8883154489558, "timestamp": "2025-12-02T19:35:50.952264+00:00", "meta": {"OBJECT_NAME": "COSMOS 2251 DEB", "OBJECT_ID": "1993-036BKX", "EPOCH": "2025-12-01T01:26:56.105376", "MEAN_MOTION": 14.34963315, "ECCENTRICITY": 0.0055446, "INCLINATION": 74.0748, "RA_OF_ASC_NODE": 89.2257, "ARG_OF_PERICENTER": 107.2854, "MEAN_ANOMALY": 253.4376, "EPHEMERIS_TYPE": 0, "CLASSIFICATION_TYPE": "U", "NORAD_CAT_ID": 37331, "ELEMENT_SET_NO": 999, "REV_AT_EPOCH": 84592, "BSTAR": 0.00070853607, "MEAN_MOTION_DOT": 2.027e-05, "MEAN_MOTION_DDOT": 0}, "tle": {"line1": "1 37331U 93036BKX 25335.06037159  .00002027  00000+0  70854-3 0  9994", "line2": "2 37331  74.0748  89.2257 0055446 107.2854 253.4376 14.34963315845920"}}, "geometry": {"type": "Point", "coordinates": [121.504055486338, 63.811238194608926]}}, {"type": "Feature", "properties": {"norad_id": 37336, "name": "COSMOS 2251 DEB", "group": "cosmos-2251-debris", "lat": 47.26305910943159, "lon": 151.2904637116707, "alt_km": 767.6413837086075, "timestamp": "2025-12-02T19:35:50.952274+00:00", "meta": {"OBJECT_NAME": "COSMOS 2251 DEB", "OBJECT_ID": "1993-036BLC", "EPOCH": "2025-12-01T07:48:14.136768", "MEAN_MOTION": 14.32750931, "ECCENTRICITY": 0.00286304, "INCLINATION": 74.0414, "RA_OF_ASC_NODE": 352.0528, "ARG_OF_PERICENTER": 73.4193, "MEAN_ANOMALY": 287.0099, "EPHEMERIS_TYPE": 0, "CLASSIFICATION_TYPE": "U", "NORAD_CAT_ID": 37336, "ELEMENT_SET_NO": 999, "REV_AT_EPOCH": 64956, "BSTAR": 8.422431e-05, "MEAN_MOTION_DOT": 2.05e-06, "MEAN_MOTION_DDOT": 0}, "tle": {"line1": "1 37336U 93036BLC 25335.32516362  .00000205  00000+0  84224-4 0  9999", "line2": "2 37336  74.0414 352.0528 0028630  73.4193 287.0099 14.32750931649565"}}, "geometry": {"type": "Point", "coordinates": [151.2904637116707, 47.26305910943159]}}, {"type": "Feature", "properties": {"norad_id": 37340, "name": "COSMOS 2251 DEB", "group": "cosmos-2251-debris", "lat": -20.863325061506046, "lon": 121.68130990812298, "alt_km": 785.7842288709144, "timestamp": "2025-12-02T19:35:50.952284+00:00", "meta": {"OBJECT_NAME": "COSMOS 2251 DEB", "OBJECT_ID": "1993-036BLG", "EPOCH": "2025-12-01T05:54:08.396928", "MEAN_MOTION": 14.3689951, "ECCENTRICITY": 0.0017334, "INCLINATION": 74.0257, "RA_OF_ASC_NODE": 298.3019, "ARG_OF_PERICENTER": 36.3032, "MEAN_ANOMALY": 323.9293, "EPHEMERIS_TYPE": 0, "CLASSIFICATION_TYPE": "U", "NORAD_CAT_ID": 37340, "ELEMENT_SET_NO": 999, "REV_AT_EPOCH": 83902, "BSTAR": 0.00025196, "MEAN_MOTION_DOT": 7.2e-06, "MEAN_MOTION_DDOT": 0}, "tle": {"line1": "1 37340U 93036BLG 25335.24593052  .00000720  00000+0  25196-3 0  9990", "line2": "2 37340  74.0257 298.3019 0017334  36.3032 323.9293 14.36899510839020"}}, "geometry": {"type": "Point", "coordinates": [121.68130990812298, -20.863325061506046]}}, {"type": "Feature", "properties": {"norad_id": 37483, "name": "COSMOS 2251 DEB", "group": "cosmos-2251-debris", "lat": 70.31654042163464, "lon": -144.67862388818847, "alt_km": 714.3139138326578, "timestamp": "2025-12-02T19:35:50.952295+00:00", "meta": {"OBJECT_NAME": "COSMOS 2251 DEB", "OBJECT_ID": "1993-036BLL", "EPOCH": "2025-11-29T19:43:16.041216", "MEAN_MOTION": 14.43525894, "ECCENTRICITY": 0.00924841, "INCLINATION": 73.9722, "RA_OF_ASC_NODE": 167.4348, "ARG_OF_PERICENTER": 16.8893, "MEAN_ANOMALY": 343.5306, "EPHEMERIS_TYPE": 0, "CLASSIFICATION_TYPE": "U", "NORAD_CAT_ID": 37483, "ELEMENT_SET_NO": 999, "REV_AT_EPOCH": 65093, "BSTAR": 0.00019069876, "MEAN_MOTION_DOT": 6.51e-06, "MEAN_MOTION_DDOT": 0}, "tle": {"line1": "1 37483U 93036BLL 25333.82171344  .00000651  00000+0  19070-3 0  9993", "line2": "2 37483  73.9722 167.4348 0092484  16.8893 343.5306 14.43525894650934"}}, "geometry": {"type": "Point", "coordinates": [-144.67862388818847, 70.31654042163464]}}, {"type": "Feature", "properties": {"norad_id": 37484, "name": "COSMOS 2251 DEB", "group": "cosmos-2251-debris", "lat": 29.065934669867296, "lon": -123.65006560784002, "alt_km": 768.434458776982, "timestamp": "2025-12-02T19:35:50.952305+00:00", "meta": {"OBJECT_NAME": "COSMOS 2251 DEB", "OBJECT_ID": "1993-036BLM", "EPOCH": "2025-12-01T23:33:59.283360", "MEAN_MOTION": 14.41705464, "ECCENTRICITY": 0.00403232, "INCLINATION": 73.8236, "RA_OF_ASC_NODE": 228.6314, "ARG_OF_PERICENTER": 264.9502, "MEAN_ANOMALY": 115.0574, "EPHEMERIS_TYPE": 0, "CLASSIFICATION_TYPE": "U", "NORAD_CAT_ID": 37484, "ELEMENT_SET_NO": 999, "REV_AT_EPOCH": 65224, "BSTAR": 0.00080475582, "MEAN_MOTION_DOT": 2.622e-05, "MEAN_MOTION_DDOT": 0}, "tle": {"line1": "1 37484U 93036BLM 25335.98193615  .00002622  00000+0  80476-3 0  9996", "line2": "2 37484  73.8236 228.6314 0040323 264.9502 115.0574 14.41705464652241"}}, "geometry": {"type": "Point", "coordinates": [-123.65006560784002, 29.065934669867296]}}, {"type": "Feature", "properties": {"norad_id": 37486, "name": "COSMOS 2251 DEB", "group": "cosmos-2251-debris", "lat": -42.04813581846878, "lon": -32.14745102785328, "alt_km": 976.1528103309893, "timestamp": "2025-12-02T19:35:50.952315+00:00", "meta": {"OBJECT_NAME": "COSMOS 2251 DEB", "OBJECT_ID": "1993-036BLP", "EPOCH": "2025-12-01T17:07:10.517952", "MEAN_MOTION": 14.13177303, "ECCENTRICITY": 0.02290014, "INCLINATION": 73.6881, "RA_OF_ASC_NODE": 134.5321, "ARG_OF_PERICENTER": 4.4169, "MEAN_ANOMALY": 10.9696, "EPHEMERIS_TYPE": 0, "CLASSIFICATION_TYPE": "U", "NORAD_CAT_ID": 37486, "ELEMENT_SET_NO": 999, "REV_AT_EPOCH": 63214, "BSTAR": 0.0017627564, "MEAN_MOTION_DOT": 4.208e-05, "MEAN_MOTION_DDOT": 0}, "tle": {"line1": "1 37486U 93036BLP 25335.71331618  .00004208  00000+0  17628-2 0  9996", "line2": "2 37486  73.6881 134.5321 0229001   4.4169  10.9696 14.13177303632147"}}, "geometry": {"type": "Point", "coordinates": [-32.14745102785328, -42.04813581846878]}}, {"type": "Feature", "properties": {"norad_id": 37487, "name": "COSMOS 2251 DEB", "group": "cosmos-2251-debris", "lat": 66.57025780658861, "lon": -106.40156079621717, "alt_km": 604.9657250710525, "timestamp": "2025-12-02T19:35:50.952326+00:00", "meta": {"OBJECT_NAME": "COSMOS 2251 DEB", "OBJECT_ID": "1993-036BLQ", "EPOCH": "2025-12-02T09:32:23.550720", "MEAN_MOTION": 14.80301659, "ECCENTRICITY": 0.0025192, "INCLINATION": 73.9034, "RA_OF_ASC_NODE": 212.6448, "ARG_OF_PERICENTER": 52.7736, "MEAN_ANOMALY": 307.5733, "EPHEMERIS_TYPE": 0, "CLASSIFICATION_TYPE": "U", "NORAD_CAT_ID": 37487, "ELEMENT_SET_NO": 999, "REV_AT_EPOCH": 81092, "BSTAR": 0.0033525, "MEAN_MOTION_DOT": 0.00025749, "MEAN_MOTION_DDOT": 0}, "tle": {"line1": "1 37487U 93036BLQ 25336.39749480  .00025749  00000+0  33525-2 0  9999", "line2": "2 37487  73.9034 212.6448 0025192  52.7736 307.5733 14.80301659810928"}}, "geometry": {"type": "Point", "coordinates": [-106.40156079621717, 66.57025780658861]}}, {"type": "Feature", "properties": {"norad_id": 37491, "name": "COSMOS 2251 DEB", "group": "cosmos-2251-debris", "lat": -1.5044322092915516, "lon": -69.70448439262258, "alt_km": 908.381910973806, "timestamp": "2025-12-02T19:35:50.952337+00:00", "meta": {"OBJECT_NAME": "COSMOS 2251 DEB", "OBJECT_ID": "1993-036BLU", "EPOCH": "2025-12-01T13:55:34.044096", "MEAN_MOTION": 13.75223452, "ECCENTRICITY": 0.03181876, "INCLINATION": 73.9059, "RA_OF_ASC_NODE": 292.8015, "ARG_OF_PERICENTER": 287.8478, "MEAN_ANOMALY": 68.8175, "EPHEMERIS_TYPE": 0, "CLASSIFICATION_TYPE": "U", "NORAD_CAT_ID": 37491, "ELEMENT_SET_NO": 999, "REV_AT_EPOCH": 55593, "BSTAR": 0.0015718852, "MEAN_MOTION_DOT": 2.153e-05, "MEAN_MOTION_DDOT": 0}, "tle": {"line1": "1 37491U 93036BLU 25335.58025514  .00002153  00000+0  15719-2 0  9998", "line2": "2 37491  73.9059 292.8015 0318187 287.8478  68.8175 13.75223452555934"}}, "geometry": {"type": "Point", "coordinates": [-69.70448439262258, -1.5044322092915516]}}]}